{"type": "FeatureCollection", "features": [{"type": "Feature", "properties": {"norad_id": 26766, "name": "INTELSAT 10 (IS-10)", "group": "intelsat", "lat": 7.527109385483312, "lon": -179.63899656140217, "alt_km": 36128.59483853759, "timestamp": "2025-12-04T19:33:59.298501+00:00", "meta": {"OBJECT_NAME": "INTELSAT 10 (IS-10)", "OBJECT_ID": "2001-019A", "EPOCH": "2025-12-03T11:53:38.525856", "MEAN_MOTION": 0.99078102, "ECCENTRICITY": 0.00077711, "INCLINATION": 8.6063, "RA_OF_ASC_NODE": 61.2471, "ARG_OF_PERICENTER": 218.7876, "MEAN_ANOMALY": 149.4282, "EPHEMERIS_TYPE": 0, "CLASSIFICATION_TYPE": "U", "NORAD_CAT_ID": 26766, "ELEMENT_SET_NO": 999, "REV_AT_EPOCH": 4364, "BSTAR": 0, "MEAN_MOTION_DOT": -1.56e-06, "MEAN_MOTION_DDOT": 0}, "tle": {"line1": "1 26766U 01019A   25337.49558479 -.00000156  00000+0  00000+0 0  9990", "line2": "2 26766   8.6063  61.2471 0007771 218.7876 149.4282  0.99078102 43647"}}, "geometry": {"type": "Point", "coordinates": [-179.63899656140217, 7.527109385483312]}}, {"type": "Feature", "properties": {"norad_id": 26900, "name": "INTELSAT 902 (IS-902)", "group": "intelsat", "lat": -5.025840490837934, "lon": -42.834671736512625, "alt_km": 35780.60218040968, "timestamp": "2025-12-04T19:33:59.298522+00:00", "meta": {"OBJECT_NAME": "INTELSAT 902 (IS-902)", "OBJECT_ID": "2001-039A", "EPOCH": "2025-12-01T16:59:59.311968", "MEAN_MOTION": 1.00270327, "ECCENTRICITY": 0.00043097, "INCLINATION": 5.6187, "RA_OF_ASC_NODE": 74.2002, "ARG_OF_PERICENTER": 175.119, "MEAN_ANOMALY": 26.3816, "EPHEMERIS_TYPE": 0, "CLASSIFICATION_TYPE": "U", "NORAD_CAT_ID": 26900, "ELEMENT_SET_NO": 999, "REV_AT_EPOCH": 8871, "BSTAR": 0, "MEAN_MOTION_DOT": -2.63e-06, "MEAN_MOTION_DDOT": 0}, "tle": {"line1": "1 26900U 01039A   25335.70832537 -.00000263  00000+0  00000+0 0  9993", "line2": "2 26900   5.6187  74.2002 0004309 175.1190  26.3816  1.00270327 88713"}}, "geometry": {"type": "Point", "coordinates": [-42.834671736512625, -5.025840490837934]}}, {"type": "Feature", "properties": {"norad_id": 27380, "name": "INTELSAT 904 (IS-904)", "group": "intelsat", "lat": -6.404051846048618, "lon": -24.154723838863987, "alt_km": 35784.25121224299, "timestamp": "2025-12-04T19:33:59.298535+00:00", "meta": {"OBJECT_NAME": "INTELSAT 904 (IS-904)", "OBJECT_ID": "2002-007A", "EPOCH": "2025-12-04T03:15:07.422048", "MEAN_MOTION": 1.00269112, "ECCENTRICITY": 0.0001653, "INCLINATION": 6.4321, "RA_OF_ASC_NODE": 71.5299, "ARG_OF_PERICENTER": 204.3424, "MEAN_ANOMALY": 174.6206, "EPHEMERIS_TYPE": 0, "CLASSIFICATION_TYPE": "U", "NORAD_CAT_ID": 27380, "ELEMENT_SET_NO": 999, "REV_AT_EPOCH": 4981, "BSTAR": 0, "MEAN_MOTION_DOT": -2.13e-06, "MEAN_MOTION_DDOT": 0}, "tle": {"line1": "1 27380U 02007A   25338.13550257 -.00000213  00000+0  00000+0 0  9993", "line2": "2 27380   6.4321  71.5299 0001653 204.3424 174.6206  1.00269112 49815"}}, "geometry": {"type": "Point", "coordinates": [-24.154723838863987, -6.404051846048618]}}, {"type": "Feature", "properties": {"norad_id": 27426, "name": "DIRECTV 5 (TEMPO 1)", "group": "intelsat", "lat": 0.012407827647361026, "lon": -102.76400770654158, "alt_km": 35770.31466154889, "timestamp": "2025-12-04T19:33:59.298547+00:00", "meta": {"OBJECT_NAME": "DIRECTV 5 (TEMPO 1)", "OBJECT_ID": "2002-023A", "EPOCH": "2025-12-04T06:21:13.546368", "MEAN_MOTION": 1.00271243, "ECCENTRICITY": 0.0003833, "INCLINATION": 4.3791, "RA_OF_ASC_NODE": 77.7519, "ARG_OF_PERICENTER": 190.9964, "MEAN_ANOMALY": 149.7746, "EPHEMERIS_TYPE": 0, "CLASSIFICATION_TYPE": "U", "NORAD_CAT_ID": 27426, "ELEMENT_SET_NO": 999, "REV_AT_EPOCH": 8616, "BSTAR": 0, "MEAN_MOTION_DOT": -4.4e-07, "MEAN_MOTION_DDOT": 0}, "tle": {"line1": "1 27426U 02023A   25338.26474012 -.00000044  00000+0  00000+0 0  9992", "line2": "2 27426   4.3791  77.7519 0003833 190.9964 149.7746  1.00271243 86167"}}, "geometry": {"type": "Point", "coordinates": [-102.76400770654158, 0.012407827647361026]}}, {"type": "Feature", "properties": {"norad_id": 27438, "name": "INTELSAT 905 (IS-905)", "group": "intelsat", "lat": 2.3141193046494526, "lon": -129.70545079557706, "alt_km": 35773.86464298632, "timestamp": "2025-12-04T19:33:59.298558+00:00", "meta": {"OBJECT_NAME": "INTELSAT 905 (IS-905)", "OBJECT_ID": "2002-027A", "EPOCH": "2025-12-03T09:40:44.149728", "MEAN_MOTION": 1.00273288, "ECCENTRICITY": 0.00031296, "INCLINATION": 6.2606, "RA_OF_ASC_NODE": 72.1621, "ARG_OF_PERICENTER": 189.1417, "MEAN_ANOMALY": 179.1858, "EPHEMERIS_TYPE": 0, "CLASSIFICATION_TYPE": "U", "NORAD_CAT_ID": 27438, "ELEMENT_SET_NO": 999, "REV_AT_EPOCH": 4940, "BSTAR": 0, "MEAN_MOTION_DOT": 1.09e-06, "MEAN_MOTION_DDOT": 0}, "tle": {"line1": "1 27438U 02027A   25337.40328877  .00000109  00000+0  00000+0 0  9992", "line2": "2 27438   6.2606  72.1621 0003129 189.1417 179.1858  1.00273288 49408"}}, "geometry": {"type": "Point", "coordinates": [-129.70545079557706, 2.3141193046494526]}}, {"type": "Feature", "properties": {"norad_id": 27445, "name": "GALAXY 3C (G-3C)", "group": "intelsat", "lat": -0.6937811322341495, "lon": -87.4992669797908, "alt_km": 35786.62253412143, "timestamp": "2025-12-04T19:33:59.298569+00:00", "meta": {"OBJECT_NAME": "GALAXY 3C (G-3C)", "OBJECT_ID": "2002-030A", "EPOCH": "2025-12-04T06:25:35.626944", "MEAN_MOTION": 1.00270421, "ECCENTRICITY": 0.00012692, "INCLINATION": 3.2417, "RA_OF_ASC_NODE": 80.5935, "ARG_OF_PERICENTER": 101.2419, "MEAN_ANOMALY": 253.0476, "EPHEMERIS_TYPE": 0, "CLASSIFICATION_TYPE": "U", "NORAD_CAT_ID": 27445, "ELEMENT_SET_NO": 999, "REV_AT_EPOCH": 4453, "BSTAR": 0, "MEAN_MOTION_DOT": -1.38e-06, "MEAN_MOTION_DDOT": 0}, "tle": {"line1": "1 27445U 02030A   25338.26777346 -.00000138  00000+0  00000+0 0  9991", "line2": "2 27445   3.2417  80.5935 0001269 101.2419 253.0476  1.00270421 44537"}}, "geometry": {"type": "Point", "coordinates": [-87.4992669797908, -0.6937811322341495]}}, {"type": "Feature", "properties": {"norad_id": 27513, "name": "INTELSAT 906 (IS-906)", "group": "intelsat", "lat": -0.32369594719767775, "lon": 71.54845076179797, "alt_km": 35810.517729660525, "timestamp": "2025-12-04T19:33:59.298580+00:00", "meta": {"OBJECT_NAME": "INTELSAT 906 (IS-906)", "OBJECT_ID": "2002-041A", "EPOCH": "2025-12-04T05:28:17.651712", "MEAN_MOTION": 1.002733, "ECCENTRICITY": 0.00061181, "INCLINATION": 5.3074, "RA_OF_ASC_NODE": 75.3323, "ARG_OF_PERICENTER": 192.8955, "MEAN_ANOMALY": 311.2929, "EPHEMERIS_TYPE": 0, "CLASSIFICATION_TYPE": "U", "NORAD_CAT_ID": 27513, "ELEMENT_SET_NO": 999, "REV_AT_EPOCH": 8507, "BSTAR": 0, "MEAN_MOTION_DOT": 2.5e-07, "MEAN_MOTION_DDOT": 0}, "tle": {"line1": "1 27513U 02041A   25338.22798208  .00000025  00000+0  00000+0 0  9999", "line2": "2 27513   5.3074  75.3323 0006118 192.8955 311.2929  1.00273300 85070"}}, "geometry": {"type": "Point", "coordinates": [71.54845076179797, -0.32369594719767775]}}, {"type": "Feature", "properties": {"norad_id": 27954, "name": "GALAXY 13 (HORIZONS-1)", "group": "intelsat", "lat": 0.6668135162994313, "lon": -142.64456313235402, "alt_km": 35778.15736757303, "timestamp": "2025-12-04T19:33:59.298592+00:00", "meta": {"OBJECT_NAME": "GALAXY 13 (HORIZONS-1)", "OBJECT_ID": "2003-044A", "EPOCH": "2025-12-04T06:09:52.133760", "MEAN_MOTION": 1.00272905, "ECCENTRICITY": 0.00020669, "INCLINATION": 0.9136, "RA_OF_ASC_NODE": 86.5773, "ARG_OF_PERICENTER": 162.365, "MEAN_ANOMALY": 126.8573, "EPHEMERIS_TYPE": 0, "CLASSIFICATION_TYPE": "U", "NORAD_CAT_ID": 27954, "ELEMENT_SET_NO": 999, "REV_AT_EPOCH": 4461, "BSTAR": 0, "MEAN_MOTION_DOT": 1.48e-06, "MEAN_MOTION_DDOT": 0}, "tle": {"line1": "1 27954U 03044A   25338.25685340  .00000148  00000+0  00000+0 0  9993", "line2": "2 27954   0.9136  86.5773 0002066 162.3650 126.8573  1.00272905 44614"}}, "geometry": {"type": "Point", "coordinates": [-142.64456313235402, 0.6668135162994313]}}, {"type": "Feature", "properties": {"norad_id": 28358, "name": "INTELSAT 10-02", "group": "intelsat", "lat": -0.009403446300918394, "lon": 6.3788878222346055, "alt_km": 35786.283074414205, "timestamp": "2025-12-04T19:33:59.298602+00:00", "meta": {"OBJECT_NAME": "INTELSAT 10-02", "OBJECT_ID": "2004-022A", "EPOCH": "2025-12-04T05:09:41.933088", "MEAN_MOTION": 1.00270514, "ECCENTRICITY": 0.00010974, "INCLINATION": 0.039, "RA_OF_ASC_NODE": 80.5957, "ARG_OF_PERICENTER": 197.6541, "MEAN_ANOMALY": 231.4749, "EPHEMERIS_TYPE": 0, "CLASSIFICATION_TYPE": "U", "NORAD_CAT_ID": 28358, "ELEMENT_SET_NO": 999, "REV_AT_EPOCH": 7860, "BSTAR": 0, "MEAN_MOTION_DOT": 5e-08, "MEAN_MOTION_DDOT": 0}, "tle": {"line1": "1 28358U 04022A   25338.21506867  .00000005  00000+0  00000+0 0  9993", "line2": "2 28358   0.0390  80.5957 0001097 197.6541 231.4749  1.00270514 78605"}}, "geometry": {"type": "Point", "coordinates": [6.3788878222346055, -0.009403446300918394]}}, {"type": "Feature", "properties": {"norad_id": 28626, "name": "XM-3 (RHYTHM)", "group": "intelsat", "lat": 0.14066393204173797, "lon": 159.2715812469976, "alt_km": 36163.4755960451, "timestamp": "2025-12-04T19:33:59.298614+00:00", "meta": {"OBJECT_NAME": "XM-3 (RHYTHM)", "OBJECT_ID": "2005-008A", "EPOCH": "2025-12-04T05:54:00.188064", "MEAN_MOTION": 0.98954927, "ECCENTRICITY": 9.775e-05, "INCLINATION": 0.1512, "RA_OF_ASC_NODE": 80.896, "ARG_OF_PERICENTER": 261.3261, "MEAN_ANOMALY": 334.211, "EPHEMERIS_TYPE": 0, "CLASSIFICATION_TYPE": "U", "NORAD_CAT_ID": 28626, "ELEMENT_SET_NO": 999, "REV_AT_EPOCH": 4066, "BSTAR": 0, "MEAN_MOTION_DOT": -2.53e-06, "MEAN_MOTION_DDOT": 0}, "tle": {"line1": "1 28626U 05008A   25338.24583551 -.00000253  00000+0  00000+0 0  9990", "line2": "2 28626   0.1512  80.8960 0000977 261.3261 334.2110  0.98954927 40663"}}, "geometry": {"type": "Point", "coordinates": [159.2715812469976, 0.14066393204173797]}}]}